SZ-21 MODULE            
1 66515U 25246C   25327.73946977  .00025464  00000+0  29518-3 0  9991
2 66515  41.4753 131.8375 0004667 132.2481 227.8754 15.61202398  1475
