CCSDS_OMM_VERS = 2.0
CREATION_DATE  = 
ORIGINATOR     = 

OBJECT_NAME    = SZ-21 MODULE
OBJECT_ID      = 2025-246C
CENTER_NAME    = EARTH
REF_FRAME      = TEME
TIME_SYSTEM    = UTC
MEAN_ELEMENT_THEORY = SGP/SGP4

EPOCH          = 2025-11-23T17:44:50.188128
MEAN_MOTION    = 15.61202398
ECCENTRICITY   = .0004667
INCLINATION    = 41.4753
RA_OF_ASC_NODE = 131.8375
ARG_OF_PERICENTER = 132.2481
MEAN_ANOMALY   = 227.8754

EPHEMERIS_TYPE = 0
CLASSIFICATION_TYPE = U
NORAD_CAT_ID   = 66515
ELEMENT_SET_NO = 999
REV_AT_EPOCH   = 147
BSTAR          = .29518E-3
MEAN_MOTION_DOT = .25464E-3
MEAN_MOTION_DDOT = 0

